{
    "links": {
        "self": "http://www.neowsapp.com/rest/v1/neo/3779049?api_key=iIulBulltgU6a56xZRHN4H3l9WmuAYTsLGpBGhQ2"
    },
    "id": "3779049",
    "neo_reference_id": "3779049",
    "name": "(2017 OA20)",
    "designation": "2017 OA20",
    "nasa_jpl_url": "http://ssd.jpl.nasa.gov/sbdb.cgi?sstr=3779049",
    "absolute_magnitude_h": 22.1,
    "estimated_diameter": {
        "kilometers": {
            "estimated_diameter_min": 0.1010543415,
            "estimated_diameter_max": 0.2259643771
        },
        "meters": {
            "estimated_diameter_min": 101.054341542,
            "estimated_diameter_max": 225.9643771094
        },
        "miles": {
            "estimated_diameter_min": 0.0627922373,
            "estimated_diameter_max": 0.140407711
        },
        "feet": {
            "estimated_diameter_min": 331.5431259047,
            "estimated_diameter_max": 741.3529669956
        }
    },
    "is_potentially_hazardous_asteroid": false,
    "close_approach_data": [
        {
            "close_approach_date": "2017-06-03",
            "close_approach_date_full": "2017-Jun-03 11:44",
            "epoch_date_close_approach": 1496490240000,
            "relative_velocity": {
                "kilometers_per_second": "10.4575314415",
                "kilometers_per_hour": "37647.1131895267",
                "miles_per_hour": "23392.4520815701"
            },
            "miss_distance": {
                "astronomical": "0.0980396638",
                "lunar": "38.1374292182",
                "kilometers": "14666524.879996106",
                "miles": "9113355.9684980228"
            },
            "orbiting_body": "Earth"
        },
        {
            "close_approach_date": "2084-01-24",
            "close_approach_date_full": "2084-Jan-24 22:25",
            "epoch_date_close_approach": 3599591100000,
            "relative_velocity": {
                "kilometers_per_second": "5.6805442686",
                "kilometers_per_hour": "20449.9593668059",
                "miles_per_hour": "12706.8094743356"
            },
            "miss_distance": {
                "astronomical": "1.4712245962",
                "lunar": "572.3063679218",
                "kilometers": "220092065.883130094",
                "miles": "136758868.1467955372"
            },
            "orbiting_body": "Juptr"
        }
    ],
    "orbital_data": {
        "orbit_id": "2",
        "orbit_determination_date": "2017-08-08 06:17:10",
        "first_observation_date": "2017-07-25",
        "last_observation_date": "2017-07-31",
        "data_arc_in_days": 6,
        "observations_used": 18,
        "orbit_uncertainty": "8",
        "minimum_orbit_intersection": ".0184663",
        "jupiter_tisserand_invariant": "3.198",
        "epoch_osculation": "2457961.5",
        "eccentricity": ".6260265675528937",
        "semi_major_axis": "2.442267991664103",
        "inclination": "2.699259330857322",
        "ascending_node_longitude": "84.09001519887113",
        "orbital_period": "1394.082268313282",
        "perihelion_distance": ".9133433437983256",
        "perihelion_argument": "160.2925222796697",
        "aphelion_distance": "3.971192639529881",
        "perihelion_time": "2457901.377075716944",
        "mean_anomaly": "15.52580736005474",
        "mean_motion": ".2582344013567926",
        "equinox": "J2000",
        "orbit_class": {
            "orbit_class_type": "APO",
            "orbit_class_description": "Near-Earth asteroid orbits which cross the Earth’s orbit similar to that of 1862 Apollo",
            "orbit_class_range": "a (semi-major axis) > 1.0 AU; q (perihelion) < 1.017 AU"
        }
    },
    "is_sentry_object": false
}